{"fetched_at":"2026-07-05T12:47:17.871Z","source":"https://celestrak.org/NORAD/elements/gp.php?GROUP=oneweb&FORMAT=JSON","constellation":"oneweb","records":[{"OBJECT_NAME":"ONEWEB-0224","OBJECT_ID":"2021-045AD","EPOCH":"2026-07-04T17:39:13.947840","CLASSIFICATION_TYPE":"U","MEAN_MOTION":13.15548585,"ECCENTRICITY":0.00028467,"INCLINATION":87.8995,"RA_OF_ASC_NODE":255.7314,"ARG_OF_PERICENTER":107.6083,"MEAN_ANOMALY":252.5358,"EPHEMERIS_TYPE":0,"NORAD_CAT_ID":48794,"ELEMENT_SET_NO":999,"REV_AT_EPOCH":24658,"BSTAR":0.00018720148,"MEAN_MOTION_DOT":8.3e-7,"MEAN_MOTION_DDOT":0},{"OBJECT_NAME":"ONEWEB-0233","OBJECT_ID":"2021-045AE","EPOCH":"2026-07-05T04:43:00.973920","CLASSIFICATION_TYPE":"U","MEAN_MOTION":13.15547754,"ECCENTRICITY":0.00020643,"INCLINATION":87.8997,"RA_OF_ASC_NODE":255.6469,"ARG_OF_PERICENTER":109.6346,"MEAN_ANOMALY":250.5007,"EPHEMERIS_TYPE":0,"NORAD_CAT_ID":48795,"ELEMENT_SET_NO":999,"REV_AT_EPOCH":24666,"BSTAR":0.0010154939,"MEAN_MOTION_DOT":0.00000395,"MEAN_MOTION_DDOT":0},{"OBJECT_NAME":"ONEWEB-0190","OBJECT_ID":"2021-045AF","EPOCH":"2026-07-04T17:27:49.182048","CLASSIFICATION_TYPE":"U","MEAN_MOTION":13.15548359,"ECCENTRICITY":0.00019161,"INCLINATION":87.8999,"RA_OF_ASC_NODE":255.703,"ARG_OF_PERICENTER":119.3726,"MEAN_ANOMALY":240.7595,"EPHEMERIS_TYPE":0,"NORAD_CAT_ID":48796,"ELEMENT_SET_NO":999,"REV_AT_EPOCH":24667,"BSTAR":0.00028469028,"MEAN_MOTION_DOT":0.0000012,"MEAN_MOTION_DDOT":0},{"OBJECT_NAME":"ONEWEB-0236","OBJECT_ID":"2021-045AG","EPOCH":"2026-07-04T17:52:55.218720","CLASSIFICATION_TYPE":"U","MEAN_MOTION":13.15548487,"ECCENTRICITY":0.00021383,"INCLINATION":87.8992,"RA_OF_ASC_NODE":255.7082,"ARG_OF_PERICENTER":97.262,"MEAN_ANOMALY":262.8754,"EPHEMERIS_TYPE":0,"NORAD_CAT_ID":48797,"ELEMENT_SET_NO":999,"REV_AT_EPOCH":24656,"BSTAR":-0.00002924608,"MEAN_MOTION_DOT":2e-8,"MEAN_MOTION_DDOT":0},{"OBJECT_NAME":"ONEWEB-0248","OBJECT_ID":"2021-045AH","EPOCH":"2026-07-04T21:50:12.873408","CLASSIFICATION_TYPE":"U","MEAN_MOTION":13.15549172,"ECCENTRICITY":0.00022194,"INCLINATION":87.9006,"RA_OF_ASC_NODE":255.6607,"ARG_OF_PERICENTER":111.8755,"MEAN_ANOMALY":248.2612,"EPHEMERIS_TYPE":0,"NORAD_CAT_ID":48798,"ELEMENT_SET_NO":999,"REV_AT_EPOCH":24674,"BSTAR":-0.00037781626,"MEAN_MOTION_DOT":-0.00000129,"MEAN_MOTION_DDOT":0},{"OBJECT_NAME":"ONEWEB-0225","OBJECT_ID":"2021-045AJ","EPOCH":"2026-07-04T11:25:01.455456","CLASSIFICATION_TYPE":"U","MEAN_MOTION":13.15547964,"ECCENTRICITY":0.00019363,"INCLINATION":87.8997,"RA_OF_ASC_NODE":255.7547,"ARG_OF_PERICENTER":115.9599,"MEAN_ANOMALY":244.1731,"EPHEMERIS_TYPE":0,"NORAD_CAT_ID":48799,"ELEMENT_SET_NO":999,"REV_AT_EPOCH":24669,"BSTAR":0.00015484779,"MEAN_MOTION_DOT":7.1e-7,"MEAN_MOTION_DDOT":0},{"OBJECT_NAME":"ONEWEB-0215","OBJECT_ID":"2021-045AK","EPOCH":"2026-07-04T10:41:40.119936","CLASSIFICATION_TYPE":"U","MEAN_MOTION":13.15549512,"ECCENTRICITY":0.00021009,"INCLINATION":87.9005,"RA_OF_ASC_NODE":255.744,"ARG_OF_PERICENTER":118.212,"MEAN_ANOMALY":241.9223,"EPHEMERIS_TYPE":0,"NORAD_CAT_ID":48800,"ELEMENT_SET_NO":999,"REV_AT_EPOCH":24656,"BSTAR":-0.000088225135,"MEAN_MOTION_DOT":-2e-7,"MEAN_MOTION_DDOT":0},{"OBJECT_NAME":"ONEWEB-0216","OBJECT_ID":"2021-045AL","EPOCH":"2026-07-04T21:52:29.752608","CLASSIFICATION_TYPE":"U","MEAN_MOTION":13.15547794,"ECCENTRICITY":0.00020209,"INCLINATION":87.9002,"RA_OF_ASC_NODE":255.6657,"ARG_OF_PERICENTER":97.8759,"MEAN_ANOMALY":262.2601,"EPHEMERIS_TYPE":0,"NORAD_CAT_ID":48801,"ELEMENT_SET_NO":999,"REV_AT_EPOCH":24663,"BSTAR":-0.00038113322,"MEAN_MOTION_DOT":-0.00000131,"MEAN_MOTION_DDOT":0},{"OBJECT_NAME":"ONEWEB-0239","OBJECT_ID":"2021-045AM","EPOCH":"2026-07-04T21:59:20.391072","CLASSIFICATION_TYPE":"U","MEAN_MOTION":13.15547672,"ECCENTRICITY":0.00023964,"INCLINATION":87.8991,"RA_OF_ASC_NODE":255.6694,"ARG_OF_PERICENTER":118.9867,"MEAN_ANOMALY":241.1503,"EPHEMERIS_TYPE":0,"NORAD_CAT_ID":48802,"ELEMENT_SET_NO":999,"REV_AT_EPOCH":24667,"BSTAR":-0.00041610494,"MEAN_MOTION_DOT":-0.00000144,"MEAN_MOTION_DDOT":0},{"OBJECT_NAME":"ONEWEB-0249","OBJECT_ID":"2021-060A","EPOCH":"2026-07-05T01:32:22.745760","CLASSIFICATION_TYPE":"U","MEAN_MOTION":13.16596103,"ECCENTRICITY":0.0002136,"INCLINATION":87.9085,"RA_OF_ASC_NODE":225.2276,"ARG_OF_PERICENTER":97.8591,"MEAN_ANOMALY":262.2782,"EPHEMERIS_TYPE":0,"NORAD_CAT_ID":48967,"ELEMENT_SET_NO":999,"REV_AT_EPOCH":24196,"BSTAR":-0.00011239129,"MEAN_MOTION_DOT":-3e-7,"MEAN_MOTION_DDOT":0},{"OBJECT_NAME":"ONEWEB-0250","OBJECT_ID":"2021-060B","EPOCH":"2026-07-04T19:35:06.757152","CLASSIFICATION_TYPE":"U","MEAN_MOTION":13.25834558,"ECCENTRICITY":0.00031196,"INCLINATION":87.9082,"RA_OF_ASC_NODE":222.9758,"ARG_OF_PERICENTER":96.4595,"MEAN_ANOMALY":263.6897,"EPHEMERIS_TYPE":0,"NORAD_CAT_ID":48968,"ELEMENT_SET_NO":999,"REV_AT_EPOCH":24255,"BSTAR":0.000047888739,"MEAN_MOTION_DOT":3.4e-7,"MEAN_MOTION_DDOT":0},{"OBJECT_NAME":"ONEWEB-0252","OBJECT_ID":"2021-060D","EPOCH":"2026-07-04T15:20:15.466560","CLASSIFICATION_TYPE":"U","MEAN_MOTION":13.1659501,"ECCENTRICITY":0.00018172,"INCLINATION":87.9083,"RA_OF_ASC_NODE":225.3041,"ARG_OF_PERICENTER":94.0221,"MEAN_ANOMALY":266.1118,"EPHEMERIS_TYPE":0,"NORAD_CAT_ID":48970,"ELEMENT_SET_NO":999,"REV_AT_EPOCH":24195,"BSTAR":0.00029730732,"MEAN_MOTION_DOT":0.00000127,"MEAN_MOTION_DDOT":0},{"OBJECT_NAME":"ONEWEB-0253","OBJECT_ID":"2021-060E","EPOCH":"2026-07-04T20:32:36.420576","CLASSIFICATION_TYPE":"U","MEAN_MOTION":13.16594665,"ECCENTRICITY":0.00021621,"INCLINATION":87.9083,"RA_OF_ASC_NODE":225.2667,"ARG_OF_PERICENTER":97.3639,"MEAN_ANOMALY":262.7738,"EPHEMERIS_TYPE":0,"NORAD_CAT_ID":48971,"ELEMENT_SET_NO":999,"REV_AT_EPOCH":24191,"BSTAR":0.0002614501,"MEAN_MOTION_DOT":0.00000113,"MEAN_MOTION_DDOT":0},{"OBJECT_NAME":"ONEWEB-0254","OBJECT_ID":"2021-060F","EPOCH":"2026-07-04T15:17:58.468128","CLASSIFICATION_TYPE":"U","MEAN_MOTION":13.16594006,"ECCENTRICITY":0.00021642,"INCLINATION":87.9085,"RA_OF_ASC_NODE":225.3078,"ARG_OF_PERICENTER":103.4994,"MEAN_ANOMALY":256.6378,"EPHEMERIS_TYPE":0,"NORAD_CAT_ID":48972,"ELEMENT_SET_NO":999,"REV_AT_EPOCH":24188,"BSTAR":0.00029011462,"MEAN_MOTION_DOT":0.00000124,"MEAN_MOTION_DDOT":0},{"OBJECT_NAME":"ONEWEB-0255","OBJECT_ID":"2021-060G","EPOCH":"2026-07-04T19:51:33.697440","CLASSIFICATION_TYPE":"U","MEAN_MOTION":13.16593907,"ECCENTRICITY":0.00020843,"INCLINATION":87.9089,"RA_OF_ASC_NODE":225.2764,"ARG_OF_PERICENTER":100.7812,"MEAN_ANOMALY":259.3553,"EPHEMERIS_TYPE":0,"NORAD_CAT_ID":48973,"ELEMENT_SET_NO":999,"REV_AT_EPOCH":24198,"BSTAR":0.000001937531,"MEAN_MOTION_DOT":1.4e-7,"MEAN_MOTION_DDOT":0},{"OBJECT_NAME":"ONEWEB-0256","OBJECT_ID":"2021-060H","EPOCH":"2026-07-04T20:29:11.084064","CLASSIFICATION_TYPE":"U","MEAN_MOTION":13.165948,"ECCENTRICITY":0.00019814,"INCLINATION":87.9074,"RA_OF_ASC_NODE":225.2746,"ARG_OF_PERICENTER":92.8513,"MEAN_ANOMALY":267.2845,"EPHEMERIS_TYPE":0,"NORAD_CAT_ID":48974,"ELEMENT_SET_NO":999,"REV_AT_EPOCH":24195,"BSTAR":0.00023931981,"MEAN_MOTION_DOT":0.00000104,"MEAN_MOTION_DDOT":0},{"OBJECT_NAME":"ONEWEB-0257","OBJECT_ID":"2021-060J","EPOCH":"2026-07-04T19:26:28.840128","CLASSIFICATION_TYPE":"U","MEAN_MOTION":13.16593437,"ECCENTRICITY":0.00019968,"INCLINATION":87.9083,"RA_OF_ASC_NODE":225.2711,"ARG_OF_PERICENTER":98.0593,"MEAN_ANOMALY":262.0764,"EPHEMERIS_TYPE":0,"NORAD_CAT_ID":48975,"ELEMENT_SET_NO":999,"REV_AT_EPOCH":24190,"BSTAR":-0.0001556587,"MEAN_MOTION_DOT":-4.7e-7,"MEAN_MOTION_DDOT":0},{"OBJECT_NAME":"ONEWEB-0258","OBJECT_ID":"2021-060K","EPOCH":"2026-07-05T00:57:04.274784","CLASSIFICATION_TYPE":"U","MEAN_MOTION":13.16593561,"ECCENTRICITY":0.0002109,"INCLINATION":87.9081,"RA_OF_ASC_NODE":225.2376,"ARG_OF_PERICENTER":95.895,"MEAN_ANOMALY":264.2422,"EPHEMERIS_TYPE":0,"NORAD_CAT_ID":48976,"ELEMENT_SET_NO":999,"REV_AT_EPOCH":24194,"BSTAR":0.00014562075,"MEAN_MOTION_DOT":6.9e-7,"MEAN_MOTION_DDOT":0},{"OBJECT_NAME":"ONEWEB-0259","OBJECT_ID":"2021-060L","EPOCH":"2026-07-05T00:47:56.984352","CLASSIFICATION_TYPE":"U","MEAN_MOTION":13.16593659,"ECCENTRICITY":0.00021955,"INCLINATION":87.9084,"RA_OF_ASC_NODE":225.2377,"ARG_OF_PERICENTER":98.8135,"MEAN_ANOMALY":261.3244,"EPHEMERIS_TYPE":0,"NORAD_CAT_ID":48977,"ELEMENT_SET_NO":999,"REV_AT_EPOCH":24197,"BSTAR":0.00017161658,"MEAN_MOTION_DOT":7.8e-7,"MEAN_MOTION_DDOT":0},{"OBJECT_NAME":"ONEWEB-0260","OBJECT_ID":"2021-060M","EPOCH":"2026-07-05T00:35:24.090432","CLASSIFICATION_TYPE":"U","MEAN_MOTION":13.16594983,"ECCENTRICITY":0.0001716,"INCLINATION":87.9079,"RA_OF_ASC_NODE":225.2403,"ARG_OF_PERICENTER":88.8807,"MEAN_ANOMALY":271.252,"EPHEMERIS_TYPE":0,"NORAD_CAT_ID":48978,"ELEMENT_SET_NO":999,"REV_AT_EPOCH":24195,"BSTAR":0.00018664079,"MEAN_MOTION_DOT":8.4e-7,"MEAN_MOTION_DDOT":0},{"OBJECT_NAME":"ONEWEB-0261","OBJECT_ID":"2021-060N","EPOCH":"2026-07-05T01:41:31.898112","CLASSIFICATION_TYPE":"U","MEAN_MOTION":13.1659299,"ECCENTRICITY":0.00019074,"INCLINATION":87.9078,"RA_OF_ASC_NODE":225.2319,"ARG_OF_PERICENTER":103.7896,"MEAN_ANOMALY":256.3447,"EPHEMERIS_TYPE":0,"NORAD_CAT_ID":48979,"ELEMENT_SET_NO":999,"REV_AT_EPOCH":24201,"BSTAR":0.000079786651,"MEAN_MOTION_DOT":4.3e-7,"MEAN_MOTION_DDOT":0},{"OBJECT_NAME":"ONEWEB-0262","OBJECT_ID":"2021-060P","EPOCH":"2026-07-05T01:13:01.629984","CLASSIFICATION_TYPE":"U","MEAN_MOTION":13.16593472,"ECCENTRICITY":0.00022929,"INCLINATION":87.9086,"RA_OF_ASC_NODE":225.222,"ARG_OF_PERICENTER":100.1894,"MEAN_ANOMALY":259.9496,"EPHEMERIS_TYPE":0,"NORAD_CAT_ID":48980,"ELEMENT_SET_NO":999,"REV_AT_EPOCH":24197,"BSTAR":0.000070890695,"MEAN_MOTION_DOT":4e-7,"MEAN_MOTION_DDOT":0},{"OBJECT_NAME":"ONEWEB-0263","OBJECT_ID":"2021-060Q","EPOCH":"2026-07-04T20:30:18.934848","CLASSIFICATION_TYPE":"U","MEAN_MOTION":13.16593087,"ECCENTRICITY":0.00019859,"INCLINATION":87.9084,"RA_OF_ASC_NODE":225.2728,"ARG_OF_PERICENTER":105.086,"MEAN_ANOMALY":255.0491,"EPHEMERIS_TYPE":0,"NORAD_CAT_ID":48981,"ELEMENT_SET_NO":999,"REV_AT_EPOCH":24191,"BSTAR":0.00012760139,"MEAN_MOTION_DOT":6.2e-7,"MEAN_MOTION_DDOT":0}]}
